1 41603U 16040E   23182.05811439  .00002115  00000-0  93939-4 0  9998
2 41603  97.1648 206.9810 0010813 266.7501  93.2499 15.22541345389601
1 41603U 16040E   23182.32100229  .00002070  00000-0  92009-4 0  9993
2 41603  97.1648 207.2317 0010813 265.6485  94.3517 15.22542346389645
1 41603U 16040E   23182.71533362  .00002058  00000-0  91486-4 0  9998
2 41603  97.1648 207.6079 0010816 264.0506  95.9499 15.22544238389709
1 41603U 16040E   23183.04394276  .00001973  00000-0  87812-4 0  9997
2 41603  97.1647 207.9214 0010822 262.7075  97.2932 15.22545618389750
1 41603U 16040E   23183.43827340  .00001915  00000-0  85314-4 0  9994
2 41603  97.1647 208.2975 0010823 261.0369  98.9643 15.22547170389816
1 41603U 16040E   23183.63543851  .00002017  00000-0  89673-4 0  9994
2 41603  97.1647 208.4855 0010823 260.2124  99.7891 15.22548357389840